{"type":"FeatureCollection","features":[{"type":"Feature","geometry":{"type":"Point","coordinates":[-122.3940709,37.7767776]},"properties":{"id":293632937,"category":"grocery","name":"Safeway"}},{"type":"Feature","geometry":{"type":"Point","coordinates":[-122.4528047,37.786265]},"properties":{"id":332787306,"category":"grocery","name":"Calmart"}},{"type":"Feature","geometry":{"type":"Point","coordinates":[-122.4336489,37.7482276]},"properties":{"id":360462977,"category":"grocery","name":"Angel's Market"}},{"type":"Feature","geometry":{"type":"Point","coordinates":[-122.4269955,37.7484143]},"properties":{"id":360463705,"category":"grocery","name":"Modern Market"}},{"type":"Feature","geometry":{"type":"Point","coordinates":[-122.4146585,37.7864444]},"properties":{"id":384359194,"category":"grocery","name":"Star Market"}},{"type":"Feature","geometry":{"type":"Point","coordinates":[-122.4235144,37.8052324]},"properties":{"id":387227570,"category":"grocery","name":"North Point Market"}},{"type":"Feature","geometry":{"type":"Point","coordinates":[-122.3997789,37.7811499]},"properties":{"id":389404007,"category":"grocery","name":"Whole Foods Market"}},{"type":"Feature","geometry":{"type":"Point","coordinates":[-122.4416127,37.8000223]},"properties":{"id":416779714,"category":"grocery","name":"Marina Supermarket"}},{"type":"Feature","geometry":{"type":"Point","coordinates":[-122.4410436,37.8001107]},"properties":{"id":416784221,"category":"grocery","name":"Marina Deli & Liquor"}},{"type":"Feature","geometry":{"type":"Point","coordinates":[-122.436559,37.7606657]},"properties":{"id":459504817,"category":"grocery","name":"Mollie Stone's"}},{"type":"Feature","geometry":{"type":"Point","coordinates":[-122.4219156,37.7666683]},"properties":{"id":497304181,"category":"grocery","name":"E & M Market"}},{"type":"Feature","geometry":{"type":"Point","coordinates":[-122.4220701,37.7650583]},"properties":{"id":497304203,"category":"grocery","name":"Foodhall"}},{"type":"Feature","geometry":{"type":"Point","coordinates":[-122.422503,37.76976]},"properties":{"id":527505796,"category":"grocery","name":"Fred's Liquor"}},{"type":"Feature","geometry":{"type":"Point","coordinates":[-122.4235801,37.7646987]},"properties":{"id":529117813,"category":"grocery","name":"K&D Market"}},{"type":"Feature","geometry":{"type":"Point","coordinates":[-122.3968164,37.7600939]},"properties":{"id":571457963,"category":"grocery","name":"Good Life Grocery"}},{"type":"Feature","geometry":{"type":"Point","coordinates":[-122.4090015,37.7986741]},"properties":{"id":612767884,"category":"grocery","name":"JW & L Market"}},{"type":"Feature","geometry":{"type":"Point","coordinates":[-122.4645819,37.7265162]},"properties":{"id":615143634,"category":"grocery","name":"7-Eleven"}},{"type":"Feature","geometry":{"type":"Point","coordinates":[-122.4100569,37.7886224]},"properties":{"id":621818319,"category":"grocery","name":"Mason Liquor & Deli"}},{"type":"Feature","geometry":{"type":"Point","coordinates":[-122.4105878,37.7888877]},"properties":{"id":621851566,"category":"grocery","name":"MMC Wine & Spirit"}},{"type":"Feature","geometry":{"type":"Point","coordinates":[-122.4305641,37.7719921]},"properties":{"id":647656834,"category":"grocery","name":"Haight Fillmore Whole Foods Co."}},{"type":"Feature","geometry":{"type":"Point","coordinates":[-122.4983446,37.742187]},"properties":{"id":718375843,"category":"grocery","name":"Sea Bee Liquors"}},{"type":"Feature","geometry":{"type":"Point","coordinates":[-122.5023245,37.7420078]},"properties":{"id":724824664,"category":"grocery","name":"Amity Market"}},{"type":"Feature","geometry":{"type":"Point","coordinates":[-122.4385594,37.7621857]},"properties":{"id":734841519,"category":"grocery","name":"Eureka Market"}},{"type":"Feature","geometry":{"type":"Point","coordinates":[-122.4762074,37.7265935]},"properties":{"id":761762694,"category":"grocery","name":"Trader Joe's"}},{"type":"Feature","geometry":{"type":"Point","coordinates":[-122.4147799,37.7856885]},"properties":{"id":830588349,"category":"grocery","name":"Deena's Market"}},{"type":"Feature","geometry":{"type":"Point","coordinates":[-122.4088465,37.7786169]},"properties":{"id":904141569,"category":"grocery","name":"Starco Mart"}},{"type":"Feature","geometry":{"type":"Point","coordinates":[-122.4234142,37.7900899]},"properties":{"id":1002186270,"category":"grocery","name":"Whole Foods Market"}},{"type":"Feature","geometry":{"type":"Point","coordinates":[-122.4341333,37.7535913]},"properties":{"id":1060956195,"category":"grocery","name":"1001 Castro Street"}},{"type":"Feature","geometry":{"type":"Point","coordinates":[-122.407672,37.7911541]},"properties":{"id":1073821273,"category":"grocery","name":"J & W Market"}},{"type":"Feature","geometry":{"type":"Point","coordinates":[-122.4335053,37.7718315]},"properties":{"id":1126947956,"category":"grocery","name":"Sunrise Market"}},{"type":"Feature","geometry":{"type":"Point","coordinates":[-122.4286694,37.7722466]},"properties":{"id":1126948195,"category":"grocery","name":"S & W market"}},{"type":"Feature","geometry":{"type":"Point","coordinates":[-122.4318431,37.7720318]},"properties":{"id":1126948245,"category":"grocery","name":"Himalaya Playa / O'Looney's"}},{"type":"Feature","geometry":{"type":"Point","coordinates":[-122.4578886,37.7098206]},"properties":{"id":1172744459,"category":"grocery","name":"7-Eleven"}},{"type":"Feature","geometry":{"type":"Point","coordinates":[-122.3897193,37.7367631]},"properties":{"id":1205120785,"category":"grocery","name":"Super Save"}},{"type":"Feature","geometry":{"type":"Point","coordinates":[-122.4077368,37.7709988]},"properties":{"id":1213823254,"category":"grocery","name":"Trader Joe's"}},{"type":"Feature","geometry":{"type":"Point","coordinates":[-122.3914266,37.7213718]},"properties":{"id":1229704788,"category":"grocery","name":null}},{"type":"Feature","geometry":{"type":"Point","coordinates":[-122.4032164,37.7123845]},"properties":{"id":1229779251,"category":"grocery","name":"7-Eleven"}},{"type":"Feature","geometry":{"type":"Point","coordinates":[-122.4551252,37.707757]},"properties":{"id":1229920627,"category":"grocery","name":null}},{"type":"Feature","geometry":{"type":"Point","coordinates":[-122.4028091,37.7253138]},"properties":{"id":1230343414,"category":"grocery","name":"Tierra Santa Market"}},{"type":"Feature","geometry":{"type":"Point","coordinates":[-122.4059665,37.7320804]},"properties":{"id":1230343494,"category":"grocery","name":"Food Mart"}},{"type":"Feature","geometry":{"type":"Point","coordinates":[-122.4196089,37.7289174]},"properties":{"id":1241673415,"category":"grocery","name":"Hillcrest Market"}},{"type":"Feature","geometry":{"type":"Point","coordinates":[-122.3912081,37.733976]},"properties":{"id":1241690521,"category":"grocery","name":null}},{"type":"Feature","geometry":{"type":"Point","coordinates":[-122.4847278,37.7821273]},"properties":{"id":1277999546,"category":"grocery","name":"25th and Clement Produce and Market"}},{"type":"Feature","geometry":{"type":"Point","coordinates":[-122.4356465,37.7627241]},"properties":{"id":1319206689,"category":"grocery","name":"KD's Grog and Groceries"}},{"type":"Feature","geometry":{"type":"Point","coordinates":[-122.416234,37.7928844]},"properties":{"id":1350484814,"category":"grocery","name":"Le Beau Market"}},{"type":"Feature","geometry":{"type":"Point","coordinates":[-122.4217072,37.7965466]},"properties":{"id":1478520948,"category":"grocery","name":"Bi-Rite Market"}},{"type":"Feature","geometry":{"type":"Point","coordinates":[-122.4060032,37.7904053]},"properties":{"id":1485975789,"category":"grocery","name":"Grant Mini Market"}},{"type":"Feature","geometry":{"type":"Point","coordinates":[-122.4074048,37.7902181]},"properties":{"id":1485988190,"category":"grocery","name":"Food Fair Market Liquors"}},{"type":"Feature","geometry":{"type":"Point","coordinates":[-122.410859,37.7900177]},"properties":{"id":1486016637,"category":"grocery","name":"Bush Market"}},{"type":"Feature","geometry":{"type":"Point","coordinates":[-122.4090986,37.7890489]},"properties":{"id":1486057725,"category":"grocery","name":"7-Eleven"}},{"type":"Feature","geometry":{"type":"Point","coordinates":[-122.4459793,37.7761053]},"properties":{"id":1706618868,"category":"grocery","name":"Lucky"}},{"type":"Feature","geometry":{"type":"Point","coordinates":[-122.4276745,37.7515955]},"properties":{"id":1713269600,"category":"grocery","name":"Shufat Market"}},{"type":"Feature","geometry":{"type":"Point","coordinates":[-122.5057598,37.7606933]},"properties":{"id":1743528308,"category":"grocery","name":"7-Eleven"}},{"type":"Feature","geometry":{"type":"Point","coordinates":[-122.4628435,37.7831431]},"properties":{"id":1769223516,"category":"grocery","name":"Genki Crepes & Mini Mart"}},{"type":"Feature","geometry":{"type":"Point","coordinates":[-122.4084387,37.7975226]},"properties":{"id":1823917069,"category":"grocery","name":"Best Food"}},{"type":"Feature","geometry":{"type":"Point","coordinates":[-122.409897,37.781741]},"properties":{"id":1825310664,"category":"grocery","name":"Habibi Market"}},{"type":"Feature","geometry":{"type":"Point","coordinates":[-122.414717,37.7764144]},"properties":{"id":1837284133,"category":"grocery","name":"Go Go Market & Deli"}},{"type":"Feature","geometry":{"type":"Point","coordinates":[-122.4322615,37.7831231]},"properties":{"id":1854749247,"category":"grocery","name":"Jai Ho Indian Grocery Store"}},{"type":"Feature","geometry":{"type":"Point","coordinates":[-122.4120484,37.7739007]},"properties":{"id":1880217801,"category":"grocery","name":"Diana Market #2"}},{"type":"Feature","geometry":{"type":"Point","coordinates":[-122.4154843,37.7884667]},"properties":{"id":1901868627,"category":"grocery","name":"Yogi Food Market"}},{"type":"Feature","geometry":{"type":"Point","coordinates":[-122.4546813,37.7237981]},"properties":{"id":1924130352,"category":"grocery","name":"Whole Foods Market"}},{"type":"Feature","geometry":{"type":"Point","coordinates":[-122.4289792,37.7660309]},"properties":{"id":1960941273,"category":"grocery","name":"Church Street Groceteria"}},{"type":"Feature","geometry":{"type":"Point","coordinates":[-122.4385135,37.7776794]},"properties":{"id":1969279894,"category":"grocery","name":"Transfer Market"}},{"type":"Feature","geometry":{"type":"Point","coordinates":[-122.4467198,37.7756753]},"properties":{"id":1969282330,"category":"grocery","name":"Fulton Food Shop"}},{"type":"Feature","geometry":{"type":"Point","coordinates":[-122.4227133,37.7486631]},"properties":{"id":1970075773,"category":"grocery","name":"26th & Guerrero Market"}},{"type":"Feature","geometry":{"type":"Point","coordinates":[-122.4508575,37.7734424]},"properties":{"id":1980330799,"category":"grocery","name":"Cindy's Market"}},{"type":"Feature","geometry":{"type":"Point","coordinates":[-122.4419453,37.7774463]},"properties":{"id":1981994718,"category":"grocery","name":"McBaker Market"}},{"type":"Feature","geometry":{"type":"Point","coordinates":[-122.4446478,37.7742525]},"properties":{"id":1990692292,"category":"grocery","name":"Home Service Market"}},{"type":"Feature","geometry":{"type":"Point","coordinates":[-122.4621338,37.7217291]},"properties":{"id":2035871772,"category":"grocery","name":"Cool Guys"}},{"type":"Feature","geometry":{"type":"Point","coordinates":[-122.4180336,37.7492129]},"properties":{"id":2047570604,"category":"grocery","name":"Casa Guadalupe"}},{"type":"Feature","geometry":{"type":"Point","coordinates":[-122.4205268,37.7522376]},"properties":{"id":2050131394,"category":"grocery","name":"Valencia Farmers Market"}},{"type":"Feature","geometry":{"type":"Point","coordinates":[-122.4194208,37.7520991]},"properties":{"id":2050878746,"category":"grocery","name":"BART Liquor Store"}},{"type":"Feature","geometry":{"type":"Point","coordinates":[-122.435887,37.7229089]},"properties":{"id":2054075810,"category":"grocery","name":"Yicks Liquor"}},{"type":"Feature","geometry":{"type":"Point","coordinates":[-122.4368714,37.7216084]},"properties":{"id":2054075829,"category":"grocery","name":"Frank's Market Liquor"}},{"type":"Feature","geometry":{"type":"Point","coordinates":[-122.431617,37.7286093]},"properties":{"id":2054130279,"category":"grocery","name":"Mission Silver Market"}},{"type":"Feature","geometry":{"type":"Point","coordinates":[-122.4246298,37.736053]},"properties":{"id":2054130284,"category":"grocery","name":"New College Hill Market"}},{"type":"Feature","geometry":{"type":"Point","coordinates":[-122.4427139,37.7147704]},"properties":{"id":2057396845,"category":"grocery","name":"United Liquor Market"}},{"type":"Feature","geometry":{"type":"Point","coordinates":[-122.4051055,37.7303902]},"properties":{"id":2059226347,"category":"grocery","name":"San Bruno Supermarket"}},{"type":"Feature","geometry":{"type":"Point","coordinates":[-122.452827,37.7092884]},"properties":{"id":2059587307,"category":"grocery","name":"ampm"}},{"type":"Feature","geometry":{"type":"Point","coordinates":[-122.420977,37.7535575]},"properties":{"id":2060252755,"category":"grocery","name":"Mr Liquor"}},{"type":"Feature","geometry":{"type":"Point","coordinates":[-122.4208323,37.7519723]},"properties":{"id":2066866627,"category":"grocery","name":"Valencia Grocery"}},{"type":"Feature","geometry":{"type":"Point","coordinates":[-122.4257298,37.7551216]},"properties":{"id":2069103495,"category":"grocery","name":"Dolores Deluxe"}},{"type":"Feature","geometry":{"type":"Point","coordinates":[-122.4208606,37.7570209]},"properties":{"id":2069159598,"category":"grocery","name":"Valencia Whole Foods"}},{"type":"Feature","geometry":{"type":"Point","coordinates":[-122.4076211,37.7976247]},"properties":{"id":2071294620,"category":"grocery","name":"ABC Supermarket Inc"}},{"type":"Feature","geometry":{"type":"Point","coordinates":[-122.4084311,37.7974117]},"properties":{"id":2071294646,"category":"grocery","name":"Kin Tat Co."}},{"type":"Feature","geometry":{"type":"Point","coordinates":[-122.4645995,37.7830743]},"properties":{"id":2074158443,"category":"grocery","name":"Food 24 Market"}},{"type":"Feature","geometry":{"type":"Point","coordinates":[-122.4337115,37.7346227]},"properties":{"id":2078333126,"category":"grocery","name":"Buddies Market"}},{"type":"Feature","geometry":{"type":"Point","coordinates":[-122.4189266,37.7991456]},"properties":{"id":2129859148,"category":"grocery","name":"Searchlight Market"}},{"type":"Feature","geometry":{"type":"Point","coordinates":[-122.4137155,37.7467436]},"properties":{"id":2130160676,"category":"grocery","name":"Harvest Hills Market"}},{"type":"Feature","geometry":{"type":"Point","coordinates":[-122.4137896,37.8054807]},"properties":{"id":2130264969,"category":"grocery","name":"Trader Joe's"}},{"type":"Feature","geometry":{"type":"Point","coordinates":[-122.4344121,37.7923695]},"properties":{"id":2133322197,"category":"grocery","name":"Mayflower Market"}},{"type":"Feature","geometry":{"type":"Point","coordinates":[-122.434461,37.7925999]},"properties":{"id":2133322244,"category":"grocery","name":"Gino's"}},{"type":"Feature","geometry":{"type":"Point","coordinates":[-122.3927992,37.7564805]},"properties":{"id":2148537238,"category":"grocery","name":"Dogpatch Biofuels"}},{"type":"Feature","geometry":{"type":"Point","coordinates":[-122.4310324,37.7852546]},"properties":{"id":2184767720,"category":"grocery","name":"Nijiya Market"}},{"type":"Feature","geometry":{"type":"Point","coordinates":[-122.4179305,37.7907686]},"properties":{"id":2184790554,"category":"grocery","name":"Trader Joe's"}},{"type":"Feature","geometry":{"type":"Point","coordinates":[-122.4149018,37.7959769]},"properties":{"id":2220082604,"category":"grocery","name":"New Russian Hill Market"}},{"type":"Feature","geometry":{"type":"Point","coordinates":[-122.4689908,37.7806174]},"properties":{"id":2248273325,"category":"grocery","name":"First Korean Market"}},{"type":"Feature","geometry":{"type":"Point","coordinates":[-122.425542,37.798471]},"properties":{"id":2338785260,"category":"grocery","name":"Sherman Market"}},{"type":"Feature","geometry":{"type":"Point","coordinates":[-122.43816,37.777716]},"properties":{"id":2338835471,"category":"grocery","name":"Green Earth"}},{"type":"Feature","geometry":{"type":"Point","coordinates":[-122.43719,37.771113]},"properties":{"id":2338836918,"category":"grocery","name":"Superette Market"}},{"type":"Feature","geometry":{"type":"Point","coordinates":[-122.387782,37.7606346]},"properties":{"id":2453601864,"category":"grocery","name":"Jim's Smoke Shop & Deli"}},{"type":"Feature","geometry":{"type":"Point","coordinates":[-122.4270651,37.7687435]},"properties":{"id":2479681841,"category":"grocery","name":"Whole Foods Market"}},{"type":"Feature","geometry":{"type":"Point","coordinates":[-122.4238896,37.7968023]},"properties":{"id":2525724761,"category":"grocery","name":"Van Ness Vallejo Market"}},{"type":"Feature","geometry":{"type":"Point","coordinates":[-122.4344896,37.7627767]},"properties":{"id":2625276230,"category":"grocery","name":"Chevron Extra Mile"}},{"type":"Feature","geometry":{"type":"Point","coordinates":[-122.4181695,37.7507677]},"properties":{"id":2626609168,"category":"grocery","name":"Golden Market"}},{"type":"Feature","geometry":{"type":"Point","coordinates":[-122.4141343,37.7510149]},"properties":{"id":2627661184,"category":"grocery","name":"R Image Market"}},{"type":"Feature","geometry":{"type":"Point","coordinates":[-122.405368,37.7415785]},"properties":{"id":2641796593,"category":"grocery","name":"Grocery Outlet"}},{"type":"Feature","geometry":{"type":"Point","coordinates":[-122.4760759,37.7765595]},"properties":{"id":2655541785,"category":"grocery","name":"17th & Balboa Market"}},{"type":"Feature","geometry":{"type":"Point","coordinates":[-122.408716,37.7529431]},"properties":{"id":2667574537,"category":"grocery","name":"Five Markets"}},{"type":"Feature","geometry":{"type":"Point","coordinates":[-122.4505453,37.7694214]},"properties":{"id":2693004231,"category":"grocery","name":"Frank's Liquors"}},{"type":"Feature","geometry":{"type":"Point","coordinates":[-122.420782,37.7902045]},"properties":{"id":2698387925,"category":"grocery","name":"Golden Farmer Market"}},{"type":"Feature","geometry":{"type":"Point","coordinates":[-122.4272116,37.7970779]},"properties":{"id":2704703748,"category":"grocery","name":"Blue Fog Market"}},{"type":"Feature","geometry":{"type":"Point","coordinates":[-122.435627,37.773267]},"properties":{"id":2819256151,"category":"grocery","name":"Oak Fair Market"}},{"type":"Feature","geometry":{"type":"Point","coordinates":[-122.4489819,37.7615674]},"properties":{"id":2869308732,"category":"grocery","name":"Adel's Wine Cellar"}},{"type":"Feature","geometry":{"type":"Point","coordinates":[-122.4121671,37.7908059]},"properties":{"id":2956812337,"category":"grocery","name":"Pine-Taylor Market"}},{"type":"Feature","geometry":{"type":"Point","coordinates":[-122.4193356,37.7682232]},"properties":{"id":3009487838,"category":"grocery","name":"New Star Market"}},{"type":"Feature","geometry":{"type":"Point","coordinates":[-122.4098541,37.803113]},"properties":{"id":3067864533,"category":"grocery","name":"Lombard Heights Market"}},{"type":"Feature","geometry":{"type":"Point","coordinates":[-122.423328,37.758486]},"properties":{"id":3088435531,"category":"grocery","name":"F & G Grocery"}},{"type":"Feature","geometry":{"type":"Point","coordinates":[-122.4085421,37.7979062]},"properties":{"id":3148123214,"category":"grocery","name":"Pang Kee Bargain Market"}},{"type":"Feature","geometry":{"type":"Point","coordinates":[-122.4086385,37.798411]},"properties":{"id":3148123215,"category":"grocery","name":"Sun Kau Shing Co., Inc."}},{"type":"Feature","geometry":{"type":"Point","coordinates":[-122.4266861,37.7452193]},"properties":{"id":3183085927,"category":"grocery","name":"Chuck's Sun Valley Grocery"}},{"type":"Feature","geometry":{"type":"Point","coordinates":[-122.4302557,37.7969094]},"properties":{"id":3189064943,"category":"grocery","name":"Green Street Market"}},{"type":"Feature","geometry":{"type":"Point","coordinates":[-122.4190711,37.7916503]},"properties":{"id":3238659965,"category":"grocery","name":"Larkin Corner Market"}},{"type":"Feature","geometry":{"type":"Point","coordinates":[-122.4225661,37.7927384]},"properties":{"id":3243807462,"category":"grocery","name":"Van Ness Liquor Wine & Spirits"}},{"type":"Feature","geometry":{"type":"Point","coordinates":[-122.413948,37.808049]},"properties":{"id":3303358570,"category":"grocery","name":"7-Eleven"}},{"type":"Feature","geometry":{"type":"Point","coordinates":[-122.4165679,37.7884234]},"properties":{"id":3376135508,"category":"grocery","name":"Sutter Fine Foods"}},{"type":"Feature","geometry":{"type":"Point","coordinates":[-122.414289,37.7523636]},"properties":{"id":3482822177,"category":"grocery","name":"La Rancho Market"}},{"type":"Feature","geometry":{"type":"Point","coordinates":[-122.4382388,37.7779289]},"properties":{"id":3489924891,"category":"grocery","name":"Save More Liquor and Grocery"}},{"type":"Feature","geometry":{"type":"Point","coordinates":[-122.4819672,37.7839057]},"properties":{"id":3524458050,"category":"grocery","name":"6001 California Market (Appel & Dietrich)"}},{"type":"Feature","geometry":{"type":"Point","coordinates":[-122.4664515,37.7404899]},"properties":{"id":3540104120,"category":"grocery","name":"West Portal Daily"}},{"type":"Feature","geometry":{"type":"Point","coordinates":[-122.4529427,37.7444725]},"properties":{"id":3545344096,"category":"grocery","name":"Miraloma Liquors"}},{"type":"Feature","geometry":{"type":"Point","coordinates":[-122.4659263,37.7404952]},"properties":{"id":3559573562,"category":"grocery","name":"Eezy Freezy"}},{"type":"Feature","geometry":{"type":"Point","coordinates":[-122.479296,37.7427662]},"properties":{"id":3564521986,"category":"grocery","name":"Good Luck Market"}},{"type":"Feature","geometry":{"type":"Point","coordinates":[-122.4116366,37.7764867]},"properties":{"id":3641710571,"category":"grocery","name":"Harvest Urban Market"}},{"type":"Feature","geometry":{"type":"Point","coordinates":[-122.4175749,37.7841613]},"properties":{"id":3648686275,"category":"grocery","name":"Rainbow Market & Deli"}},{"type":"Feature","geometry":{"type":"Point","coordinates":[-122.4683007,37.7638269]},"properties":{"id":3658311027,"category":"grocery","name":"Eddy's Market"}},{"type":"Feature","geometry":{"type":"Point","coordinates":[-122.4230438,37.755278]},"properties":{"id":3663976017,"category":"grocery","name":"Guerrero Market"}},{"type":"Feature","geometry":{"type":"Point","coordinates":[-122.4649701,37.7621197]},"properties":{"id":3667881625,"category":"grocery","name":"Five Markets"}},{"type":"Feature","geometry":{"type":"Point","coordinates":[-122.4681063,37.7641267]},"properties":{"id":3686450976,"category":"grocery","name":"Sakura"}},{"type":"Feature","geometry":{"type":"Point","coordinates":[-122.453074,37.7662623]},"properties":{"id":3790822864,"category":"grocery","name":"Parkview Market"}},{"type":"Feature","geometry":{"type":"Point","coordinates":[-122.4526937,37.7643959]},"properties":{"id":3790823457,"category":"grocery","name":"Sunny Country Foods"}},{"type":"Feature","geometry":{"type":"Point","coordinates":[-122.4128227,37.763978]},"properties":{"id":3850073315,"category":"grocery","name":"Gus's Community Market"}},{"type":"Feature","geometry":{"type":"Point","coordinates":[-122.413623,37.749437]},"properties":{"id":3857827557,"category":"grocery","name":"Rubin's Market"}},{"type":"Feature","geometry":{"type":"Point","coordinates":[-122.4197085,37.7616133]},"properties":{"id":3883822524,"category":"grocery","name":"International Produce Market"}},{"type":"Feature","geometry":{"type":"Point","coordinates":[-122.4601078,37.7651507]},"properties":{"id":3899202702,"category":"grocery","name":"UC Market"}},{"type":"Feature","geometry":{"type":"Point","coordinates":[-122.4100247,37.795529]},"properties":{"id":3969574176,"category":"grocery","name":"Kiki Supermarket"}},{"type":"Feature","geometry":{"type":"Point","coordinates":[-122.4102322,37.7965633]},"properties":{"id":3969590468,"category":"grocery","name":"Powell Grocery"}},{"type":"Feature","geometry":{"type":"Point","coordinates":[-122.4182,37.795563]},"properties":{"id":3969606066,"category":"grocery","name":"Hyde & Pacific Liquors"}},{"type":"Feature","geometry":{"type":"Point","coordinates":[-122.4631356,37.7621737]},"properties":{"id":4002028591,"category":"grocery","name":"Golden Bear Trading Company"}},{"type":"Feature","geometry":{"type":"Point","coordinates":[-122.4822883,37.7001684]},"properties":{"id":4008802791,"category":"grocery","name":"Trader Joe's"}},{"type":"Feature","geometry":{"type":"Point","coordinates":[-122.4086681,37.7970928]},"properties":{"id":4017220288,"category":"grocery","name":"J & L Vegi Supermarket"}},{"type":"Feature","geometry":{"type":"Point","coordinates":[-122.4816397,37.7632461]},"properties":{"id":4018792591,"category":"grocery","name":"S&B Supermarket"}},{"type":"Feature","geometry":{"type":"Point","coordinates":[-122.4822013,37.7632213]},"properties":{"id":4018792695,"category":"grocery","name":"Heartland Healthy Food"}},{"type":"Feature","geometry":{"type":"Point","coordinates":[-122.407988,37.7968665]},"properties":{"id":4018980288,"category":"grocery","name":"New Asia Market"}},{"type":"Feature","geometry":{"type":"Point","coordinates":[-122.410289,37.7968956]},"properties":{"id":4024227022,"category":"grocery","name":"Sam & Son Market"}},{"type":"Feature","geometry":{"type":"Point","coordinates":[-122.4352763,37.7716152]},"properties":{"id":4030525941,"category":"grocery","name":"Santa Clara Natural Organic Market"}},{"type":"Feature","geometry":{"type":"Point","coordinates":[-122.4157915,37.7786289]},"properties":{"id":4033949293,"category":"grocery","name":"New York Tobacco"}},{"type":"Feature","geometry":{"type":"Point","coordinates":[-122.4192416,37.7623886]},"properties":{"id":4047373297,"category":"grocery","name":"Mi Ranchito Produce"}},{"type":"Feature","geometry":{"type":"Point","coordinates":[-122.4196213,37.7626483]},"properties":{"id":4060877701,"category":"grocery","name":"Quic Qic Groceries"}},{"type":"Feature","geometry":{"type":"Point","coordinates":[-122.419641,37.7628614]},"properties":{"id":4060877703,"category":"grocery","name":"Mission Grocery"}},{"type":"Feature","geometry":{"type":"Point","coordinates":[-122.422727,37.7717188]},"properties":{"id":4062451566,"category":"grocery","name":"Valmar Supermarket"}},{"type":"Feature","geometry":{"type":"Point","coordinates":[-122.4084053,37.7958949]},"properties":{"id":4077374389,"category":"grocery","name":"Little Paradise"}},{"type":"Feature","geometry":{"type":"Point","coordinates":[-122.405911,37.794968]},"properties":{"id":4100737134,"category":"grocery","name":"Charming Sun Market Inc"}},{"type":"Feature","geometry":{"type":"Point","coordinates":[-122.4058471,37.7945907]},"properties":{"id":4100737139,"category":"grocery","name":"Jackson Produce"}},{"type":"Feature","geometry":{"type":"Point","coordinates":[-122.3904047,37.7363615]},"properties":{"id":4103856293,"category":"grocery","name":"Kennedy's Market"}},{"type":"Feature","geometry":{"type":"Point","coordinates":[-122.4070914,37.7976215]},"properties":{"id":4106923140,"category":"grocery","name":"D & G Group"}},{"type":"Feature","geometry":{"type":"Point","coordinates":[-122.4183309,37.7483339]},"properties":{"id":4113464697,"category":"grocery","name":"Casa Guadalupe"}},{"type":"Feature","geometry":{"type":"Point","coordinates":[-122.416268,37.753871]},"properties":{"id":4173566690,"category":"grocery","name":"Casa Maria"}},{"type":"Feature","geometry":{"type":"Point","coordinates":[-122.4534241,37.7231604]},"properties":{"id":4203446059,"category":"grocery","name":"Food Mart"}},{"type":"Feature","geometry":{"type":"Point","coordinates":[-122.45296,37.7228532]},"properties":{"id":4203446082,"category":"grocery","name":"Fastbreak"}},{"type":"Feature","geometry":{"type":"Point","coordinates":[-122.5052671,37.7528289]},"properties":{"id":4214319695,"category":"grocery","name":"Brother's Mini Market"}},{"type":"Feature","geometry":{"type":"Point","coordinates":[-122.41941,37.7603364]},"properties":{"id":4218361464,"category":"grocery","name":"City Discount Meat & Grocery Market"}},{"type":"Feature","geometry":{"type":"Point","coordinates":[-122.419462,37.7607798]},"properties":{"id":4241975784,"category":"grocery","name":"Georges' Market"}},{"type":"Feature","geometry":{"type":"Point","coordinates":[-122.407244,37.73948]},"properties":{"id":4242961501,"category":"grocery","name":"AMS Market"}},{"type":"Feature","geometry":{"type":"Point","coordinates":[-122.4093854,37.8021042]},"properties":{"id":4298873479,"category":"grocery","name":"Napoli Market"}},{"type":"Feature","geometry":{"type":"Point","coordinates":[-122.4201651,37.765158]},"properties":{"id":4322166640,"category":"grocery","name":"Casa Latina Market"}},{"type":"Feature","geometry":{"type":"Point","coordinates":[-122.454983,37.7219732]},"properties":{"id":4331556518,"category":"grocery","name":"Holloway Market"}},{"type":"Feature","geometry":{"type":"Point","coordinates":[-122.4437952,37.7702985]},"properties":{"id":4348866889,"category":"grocery","name":"Central Haight Market"}},{"type":"Feature","geometry":{"type":"Point","coordinates":[-122.5014571,37.7756542]},"properties":{"id":4349254493,"category":"grocery","name":"Richmond Market"}},{"type":"Feature","geometry":{"type":"Point","coordinates":[-122.4928848,37.7758026]},"properties":{"id":4349256218,"category":"grocery","name":"Better Food Market"}},{"type":"Feature","geometry":{"type":"Point","coordinates":[-122.409412,37.7781839]},"properties":{"id":4370393191,"category":"grocery","name":"Tony Baloney's Market"}},{"type":"Feature","geometry":{"type":"Point","coordinates":[-122.397501,37.7598573]},"properties":{"id":4427822496,"category":"grocery","name":"All States Best Foods"}},{"type":"Feature","geometry":{"type":"Point","coordinates":[-122.4183448,37.7528358]},"properties":{"id":4548821705,"category":"grocery","name":"Mi Pueblito Market"}},{"type":"Feature","geometry":{"type":"Point","coordinates":[-122.4391164,37.780703]},"properties":{"id":4556360352,"category":"grocery","name":"Pearl Market"}},{"type":"Feature","geometry":{"type":"Point","coordinates":[-122.487636,37.7797491]},"properties":{"id":4564626093,"category":"grocery","name":"Grocery Outlet"}},{"type":"Feature","geometry":{"type":"Point","coordinates":[-122.4771037,37.7806319]},"properties":{"id":4571196183,"category":"grocery","name":"Europa Plus"}},{"type":"Feature","geometry":{"type":"Point","coordinates":[-122.4423906,37.7993684]},"properties":{"id":4578423704,"category":"grocery","name":"Fast Fill Market"}},{"type":"Feature","geometry":{"type":"Point","coordinates":[-122.4985935,37.7608786]},"properties":{"id":4593719026,"category":"grocery","name":"Charlie's Market"}},{"type":"Feature","geometry":{"type":"Point","coordinates":[-122.4250252,37.8023727]},"properties":{"id":4613888429,"category":"grocery","name":"Amro Market"}},{"type":"Feature","geometry":{"type":"Point","coordinates":[-122.4221293,37.8053656]},"properties":{"id":4613888436,"category":"grocery","name":"Mr. Liquor"}},{"type":"Feature","geometry":{"type":"Point","coordinates":[-122.4076485,37.7978842]},"properties":{"id":4614039300,"category":"grocery","name":"SunMoon Market"}},{"type":"Feature","geometry":{"type":"Point","coordinates":[-122.4090934,37.7977088]},"properties":{"id":4614040397,"category":"grocery","name":"Cao Kee Market"}},{"type":"Feature","geometry":{"type":"Point","coordinates":[-122.4069884,37.7971173]},"properties":{"id":4616011734,"category":"grocery","name":"Summing Ho Trading Co."}},{"type":"Feature","geometry":{"type":"Point","coordinates":[-122.4233634,37.7795814]},"properties":{"id":4624048568,"category":"grocery","name":"Super Sam"}},{"type":"Feature","geometry":{"type":"Point","coordinates":[-122.4158417,37.7824628]},"properties":{"id":4625090829,"category":"grocery","name":"Hyde & Turk Market"}},{"type":"Feature","geometry":{"type":"Point","coordinates":[-122.4172183,37.7824966]},"properties":{"id":4625105134,"category":"grocery","name":"SF OrganiCA"}},{"type":"Feature","geometry":{"type":"Point","coordinates":[-122.4149473,37.7948993]},"properties":{"id":4625108173,"category":"grocery","name":"Jackson Market"}},{"type":"Feature","geometry":{"type":"Point","coordinates":[-122.4154431,37.7819539]},"properties":{"id":4625139244,"category":"grocery","name":"Hyde St Gift and Snack Shop"}},{"type":"Feature","geometry":{"type":"Point","coordinates":[-122.4157583,37.7834425]},"properties":{"id":4625139247,"category":"grocery","name":"Cadillac Market"}},{"type":"Feature","geometry":{"type":"Point","coordinates":[-122.412688,37.7933763]},"properties":{"id":4625169865,"category":"grocery","name":"VJ Grocery"}},{"type":"Feature","geometry":{"type":"Point","coordinates":[-122.4173545,37.783207]},"properties":{"id":4625185531,"category":"grocery","name":"Fox Market"}},{"type":"Feature","geometry":{"type":"Point","coordinates":[-122.4160786,37.7836299]},"properties":{"id":4625200056,"category":"grocery","name":"New Princess Market"}},{"type":"Feature","geometry":{"type":"Point","coordinates":[-122.4325571,37.7985332]},"properties":{"id":4625224087,"category":"grocery","name":null}},{"type":"Feature","geometry":{"type":"Point","coordinates":[-122.4309984,37.7741397]},"properties":{"id":4628177738,"category":"grocery","name":"Key Food Market"}},{"type":"Feature","geometry":{"type":"Point","coordinates":[-122.416346,37.7864467]},"properties":{"id":4628441088,"category":"grocery","name":"Geary & Hyde Market"}},{"type":"Feature","geometry":{"type":"Point","coordinates":[-122.4164164,37.7852604]},"properties":{"id":4628442789,"category":"grocery","name":"Hyde & O'Farrell Market"}},{"type":"Feature","geometry":{"type":"Point","coordinates":[-122.4179009,37.7843471]},"properties":{"id":4628517639,"category":"grocery","name":null}},{"type":"Feature","geometry":{"type":"Point","coordinates":[-122.419776,37.7867415]},"properties":{"id":4628615917,"category":"grocery","name":"Green Apple Market"}},{"type":"Feature","geometry":{"type":"Point","coordinates":[-122.4298727,37.7866375]},"properties":{"id":4628704335,"category":"grocery","name":"Super Mira"}},{"type":"Feature","geometry":{"type":"Point","coordinates":[-122.4788199,37.7840258]},"properties":{"id":4630226706,"category":"grocery","name":"New California Market"}},{"type":"Feature","geometry":{"type":"Point","coordinates":[-122.412688,37.7850021]},"properties":{"id":4631708920,"category":"grocery","name":"Young-Ellis Food Center"}},{"type":"Feature","geometry":{"type":"Point","coordinates":[-122.4056942,37.7916382]},"properties":{"id":4631727981,"category":"grocery","name":"Chinatown Bargain Depot"}},{"type":"Feature","geometry":{"type":"Point","coordinates":[-122.4259805,37.8006863]},"properties":{"id":4631831950,"category":"grocery","name":"Franklin Market"}},{"type":"Feature","geometry":{"type":"Point","coordinates":[-122.414517,37.7857309]},"properties":{"id":4631891265,"category":"grocery","name":"Mi Reyna Market"}},{"type":"Feature","geometry":{"type":"Point","coordinates":[-122.4014511,37.7895104]},"properties":{"id":4632085289,"category":"grocery","name":"Bay Food Mini Market"}},{"type":"Feature","geometry":{"type":"Point","coordinates":[-122.4182553,37.7944737]},"properties":{"id":4637210183,"category":"grocery","name":"J H Grocery and Liquor"}},{"type":"Feature","geometry":{"type":"Point","coordinates":[-122.4107195,37.784303]},"properties":{"id":4637773272,"category":"grocery","name":"Daldas Market"}},{"type":"Feature","geometry":{"type":"Point","coordinates":[-122.4027236,37.7643298]},"properties":{"id":4661543003,"category":"grocery","name":"Whole Foods Market"}},{"type":"Feature","geometry":{"type":"Point","coordinates":[-122.391412,37.7742721]},"properties":{"id":4693634740,"category":"grocery","name":"Gus's Community Market"}},{"type":"Feature","geometry":{"type":"Point","coordinates":[-122.4056288,37.785398]},"properties":{"id":4704557447,"category":"grocery","name":"Trader Joe's"}},{"type":"Feature","geometry":{"type":"Point","coordinates":[-122.4647446,37.7851234]},"properties":{"id":4755628605,"category":"grocery","name":"Park Presidio Liquors"}},{"type":"Feature","geometry":{"type":"Point","coordinates":[-122.4273437,37.7742787]},"properties":{"id":4840631551,"category":"grocery","name":"Oak Gourmet"}},{"type":"Feature","geometry":{"type":"Point","coordinates":[-122.441416,37.7851816]},"properties":{"id":4840631555,"category":"grocery","name":"Stewart's Grocery"}},{"type":"Feature","geometry":{"type":"Point","coordinates":[-122.4389402,37.7733138]},"properties":{"id":4852448016,"category":"grocery","name":"Falletti Foods"}},{"type":"Feature","geometry":{"type":"Point","coordinates":[-122.4215932,37.7599503]},"properties":{"id":4925215288,"category":"grocery","name":"Rhea's Market & Deli"}},{"type":"Feature","geometry":{"type":"Point","coordinates":[-122.4094856,37.7474973]},"properties":{"id":4934813168,"category":"grocery","name":"Sam's Market"}},{"type":"Feature","geometry":{"type":"Point","coordinates":[-122.4086665,37.7495179]},"properties":{"id":4934813428,"category":"grocery","name":"ABC Market"}},{"type":"Feature","geometry":{"type":"Point","coordinates":[-122.4183074,37.7489379]},"properties":{"id":4945079782,"category":"grocery","name":"Stop & Shop Market"}},{"type":"Feature","geometry":{"type":"Point","coordinates":[-122.4055358,37.7430476]},"properties":{"id":4947655358,"category":"grocery","name":"Bayshore Market Deli & Liquor"}},{"type":"Feature","geometry":{"type":"Point","coordinates":[-122.4066359,37.7530388]},"properties":{"id":4947854931,"category":"grocery","name":"N & V Liquors & Grocery"}},{"type":"Feature","geometry":{"type":"Point","coordinates":[-122.4074282,37.7528111]},"properties":{"id":4951457181,"category":"grocery","name":"Tony's Market"}},{"type":"Feature","geometry":{"type":"Point","coordinates":[-122.4413672,37.7267869]},"properties":{"id":4951872001,"category":"grocery","name":"Roxie Food Center"}},{"type":"Feature","geometry":{"type":"Point","coordinates":[-122.414204,37.7388099]},"properties":{"id":4972855027,"category":"grocery","name":"Andi's Market"}},{"type":"Feature","geometry":{"type":"Point","coordinates":[-122.509954,37.7742945]},"properties":{"id":5061169918,"category":"grocery","name":"Europa Express"}},{"type":"Feature","geometry":{"type":"Point","coordinates":[-122.4465288,37.7670881]},"properties":{"id":5222768492,"category":"grocery","name":"Ashbury Market"}},{"type":"Feature","geometry":{"type":"Point","coordinates":[-122.427797,37.7998816]},"properties":{"id":5311107139,"category":"grocery","name":"Fort Mason Market and Deli"}},{"type":"Feature","geometry":{"type":"Point","coordinates":[-122.4331305,37.7860068]},"properties":{"id":5315466469,"category":"grocery","name":"Friends Liquor Groceries"}},{"type":"Feature","geometry":{"type":"Point","coordinates":[-122.4201097,37.7870122]},"properties":{"id":5408971979,"category":"grocery","name":"New India Bazar"}},{"type":"Feature","geometry":{"type":"Point","coordinates":[-122.4169502,37.7350041]},"properties":{"id":5461090840,"category":"grocery","name":"U-Save Liquor & Grocery"}},{"type":"Feature","geometry":{"type":"Point","coordinates":[-122.3957876,37.7625243]},"properties":{"id":5538811234,"category":"grocery","name":"New Potrero Market"}},{"type":"Feature","geometry":{"type":"Point","coordinates":[-122.397181,37.7626475]},"properties":{"id":5538811238,"category":"grocery","name":"Le Marché Cezanne"}},{"type":"Feature","geometry":{"type":"Point","coordinates":[-122.4034072,37.8033968]},"properties":{"id":5650690021,"category":"grocery","name":"RJ’s market"}},{"type":"Feature","geometry":{"type":"Point","coordinates":[-122.4342823,37.7334515]},"properties":{"id":5678163982,"category":"grocery","name":"Glen Park Market"}},{"type":"Feature","geometry":{"type":"Point","coordinates":[-122.4084473,37.7152284]},"properties":{"id":5792800295,"category":"grocery","name":"Teddy's Market"}},{"type":"Feature","geometry":{"type":"Point","coordinates":[-122.5057581,37.7603023]},"properties":{"id":5876905609,"category":"grocery","name":"Western Sunset Market"}},{"type":"Feature","geometry":{"type":"Point","coordinates":[-122.4783682,37.7484256]},"properties":{"id":5893320826,"category":"grocery","name":"Tommy's Market & Deli"}},{"type":"Feature","geometry":{"type":"Point","coordinates":[-122.4853733,37.7761327]},"properties":{"id":6377341564,"category":"grocery","name":"Balboa Bi-rite Market"}},{"type":"Feature","geometry":{"type":"Point","coordinates":[-122.485026,37.7821322]},"properties":{"id":6397680533,"category":"grocery","name":"Tigers Liquors"}},{"type":"Feature","geometry":{"type":"Point","coordinates":[-122.4060709,37.7936988]},"properties":{"id":6417228186,"category":"grocery","name":"Wok Shop"}},{"type":"Feature","geometry":{"type":"Point","coordinates":[-122.3919796,37.7890338]},"properties":{"id":6469314085,"category":"grocery","name":"Woodlands Market"}},{"type":"Feature","geometry":{"type":"Point","coordinates":[-122.4795405,37.7801447]},"properties":{"id":6486930280,"category":"grocery","name":"Mainland Market Co."}},{"type":"Feature","geometry":{"type":"Point","coordinates":[-122.4801072,37.7801094]},"properties":{"id":6486931285,"category":"grocery","name":"New World Market"}},{"type":"Feature","geometry":{"type":"Point","coordinates":[-122.4075782,37.794007]},"properties":{"id":6516857460,"category":"grocery","name":"G & Y Bakery Cafe"}},{"type":"Feature","geometry":{"type":"Point","coordinates":[-122.3974122,37.7917231]},"properties":{"id":6582227557,"category":"grocery","name":"Russell’s"}},{"type":"Feature","geometry":{"type":"Point","coordinates":[-122.4512893,37.7817838]},"properties":{"id":6591801233,"category":"grocery","name":"Sunny Market"}},{"type":"Feature","geometry":{"type":"Point","coordinates":[-122.4313234,37.7757295]},"properties":{"id":6645406775,"category":"grocery","name":"Tim’s Market"}},{"type":"Feature","geometry":{"type":"Point","coordinates":[-122.462431,37.783158]},"properties":{"id":6791585433,"category":"grocery","name":"Olive"}},{"type":"Feature","geometry":{"type":"Point","coordinates":[-122.4629968,37.7829075]},"properties":{"id":6791676302,"category":"grocery","name":"T & L Market"}},{"type":"Feature","geometry":{"type":"Point","coordinates":[-122.4776853,37.7802335]},"properties":{"id":6829148246,"category":"grocery","name":"Hokkaido Sashimi Marketplace"}},{"type":"Feature","geometry":{"type":"Point","coordinates":[-122.4788947,37.7801867]},"properties":{"id":6829148263,"category":"grocery","name":"City Discount Market #2"}},{"type":"Feature","geometry":{"type":"Point","coordinates":[-122.4687676,37.7806414]},"properties":{"id":6831790667,"category":"grocery","name":"Gourmand"}},{"type":"Feature","geometry":{"type":"Point","coordinates":[-122.470578,37.7805681]},"properties":{"id":6831833987,"category":"grocery","name":"State Market"}},{"type":"Feature","geometry":{"type":"Point","coordinates":[-122.4665611,37.7807228]},"properties":{"id":6833462315,"category":"grocery","name":"Modera Liquor & Wine"}},{"type":"Feature","geometry":{"type":"Point","coordinates":[-122.468281,37.7750476]},"properties":{"id":6967881716,"category":"grocery","name":"Denhard's Market"}},{"type":"Feature","geometry":{"type":"Point","coordinates":[-122.4171403,37.7647819]},"properties":{"id":6986281616,"category":"grocery","name":"Food Mart"}},{"type":"Feature","geometry":{"type":"Point","coordinates":[-122.4187754,37.7721424]},"properties":{"id":7044717961,"category":"grocery","name":"Tower Car Wash"}},{"type":"Feature","geometry":{"type":"Point","coordinates":[-122.416926,37.7823361]},"properties":{"id":7235618614,"category":"grocery","name":null}},{"type":"Feature","geometry":{"type":"Point","coordinates":[-122.4601659,37.7810277]},"properties":{"id":7236129266,"category":"grocery","name":"Stardust Market"}},{"type":"Feature","geometry":{"type":"Point","coordinates":[-122.3708828,37.8166546]},"properties":{"id":7237427005,"category":"grocery","name":"Island Market & Deli"}},{"type":"Feature","geometry":{"type":"Point","coordinates":[-122.4352703,37.7972287]},"properties":{"id":8140177640,"category":"grocery","name":"Luke's Local"}},{"type":"Feature","geometry":{"type":"Point","coordinates":[-122.4637595,37.7008399]},"properties":{"id":8252704384,"category":"grocery","name":"Mid City Market"}},{"type":"Feature","geometry":{"type":"Point","coordinates":[-122.4456009,37.7096699]},"properties":{"id":8252704387,"category":"grocery","name":"Lowell Market"}},{"type":"Feature","geometry":{"type":"Point","coordinates":[-122.3903167,37.7879258]},"properties":{"id":8386152677,"category":"grocery","name":"Gabby’s Market and Deli"}},{"type":"Feature","geometry":{"type":"Point","coordinates":[-122.442084,37.788685]},"properties":{"id":8421358944,"category":"grocery","name":"Christa Wonderful Market"}},{"type":"Feature","geometry":{"type":"Point","coordinates":[-122.4432127,37.7839862]},"properties":{"id":8444493288,"category":"grocery","name":"Royal Market"}},{"type":"Feature","geometry":{"type":"Point","coordinates":[-122.4433343,37.7846931]},"properties":{"id":8444510291,"category":"grocery","name":"Indian Market & Liquor"}},{"type":"Feature","geometry":{"type":"Point","coordinates":[-122.46765,37.7103977]},"properties":{"id":8663867589,"category":"grocery","name":"H Mart"}},{"type":"Feature","geometry":{"type":"Point","coordinates":[-122.4558476,37.7117952]},"properties":{"id":8893186811,"category":"grocery","name":"ExtraMile"}},{"type":"Feature","geometry":{"type":"Point","coordinates":[-122.4563881,37.7130572]},"properties":{"id":8893186812,"category":"grocery","name":"Ana's Market"}},{"type":"Feature","geometry":{"type":"Point","coordinates":[-122.4432864,37.7760934]},"properties":{"id":9132814110,"category":"grocery","name":"NOPA Corner Market"}},{"type":"Feature","geometry":{"type":"Point","coordinates":[-122.5034368,37.7528697]},"properties":{"id":9147266528,"category":"grocery","name":"Gus's Community Market"}},{"type":"Feature","geometry":{"type":"Point","coordinates":[-122.4137255,37.7877396]},"properties":{"id":9203665042,"category":"grocery","name":"EM Deli"}},{"type":"Feature","geometry":{"type":"Point","coordinates":[-122.4384111,37.7605884]},"properties":{"id":9251446486,"category":"grocery","name":"Rainbow Market"}},{"type":"Feature","geometry":{"type":"Point","coordinates":[-122.4133918,37.7894691]},"properties":{"id":9426889455,"category":"grocery","name":"Market Mayflower and Deli"}},{"type":"Feature","geometry":{"type":"Point","coordinates":[-122.4138435,37.7894216]},"properties":{"id":9426889459,"category":"grocery","name":"Round The Clock Market"}},{"type":"Feature","geometry":{"type":"Point","coordinates":[-122.4095909,37.7863575]},"properties":{"id":9427241921,"category":"grocery","name":"Fred's Food Mart"}},{"type":"Feature","geometry":{"type":"Point","coordinates":[-122.4140681,37.7905471]},"properties":{"id":9446437511,"category":"grocery","name":"Pine & Jones Market"}},{"type":"Feature","geometry":{"type":"Point","coordinates":[-122.4101695,37.7865875]},"properties":{"id":9553542985,"category":"grocery","name":"Al's Super Lotto"}},{"type":"Feature","geometry":{"type":"Point","coordinates":[-122.4186333,37.7871084]},"properties":{"id":9602333336,"category":"grocery","name":"S&B Grocery Liquors"}},{"type":"Feature","geometry":{"type":"Point","coordinates":[-122.4232073,37.7741196]},"properties":{"id":9657626206,"category":"grocery","name":"Nick's Super Market"}},{"type":"Feature","geometry":{"type":"Point","coordinates":[-122.4912857,37.7534462]},"properties":{"id":9794184321,"category":"grocery","name":"Boss Supermarket"}},{"type":"Feature","geometry":{"type":"Point","coordinates":[-122.4321382,37.7880475]},"properties":{"id":9863215086,"category":"grocery","name":"Natural Market"}},{"type":"Feature","geometry":{"type":"Point","coordinates":[-122.4235471,37.788695]},"properties":{"id":9863236231,"category":"grocery","name":"Franklin Market Deli"}},{"type":"Feature","geometry":{"type":"Point","coordinates":[-122.4161675,37.7938439]},"properties":{"id":9869464068,"category":"grocery","name":"Nob Hill General Store"}},{"type":"Feature","geometry":{"type":"Point","coordinates":[-122.4200542,37.7867126]},"properties":{"id":9896481396,"category":"grocery","name":"Polk N Post Convenience Store"}},{"type":"Feature","geometry":{"type":"Point","coordinates":[-122.4224598,37.7835229]},"properties":{"id":9908618530,"category":"grocery","name":"College Market"}},{"type":"Feature","geometry":{"type":"Point","coordinates":[-122.417614,37.7862911]},"properties":{"id":9955974083,"category":"grocery","name":"Mid City Market"}},{"type":"Feature","geometry":{"type":"Point","coordinates":[-122.4186933,37.7861477]},"properties":{"id":9956011492,"category":"grocery","name":"Salem Grocery and Liquor"}},{"type":"Feature","geometry":{"type":"Point","coordinates":[-122.401163,37.7923826]},"properties":{"id":9976266125,"category":"grocery","name":"7-Eleven"}},{"type":"Feature","geometry":{"type":"Point","coordinates":[-122.4225349,37.7464738]},"properties":{"id":9982793233,"category":"grocery","name":"Indian Market and Liquor"}},{"type":"Feature","geometry":{"type":"Point","coordinates":[-122.4238326,37.763283]},"properties":{"id":9982800259,"category":"grocery","name":"Hom's Grocery and Liquor"}},{"type":"Feature","geometry":{"type":"Point","coordinates":[-122.4142279,37.7828911]},"properties":{"id":9991812620,"category":"grocery","name":"Maryland Market"}},{"type":"Feature","geometry":{"type":"Point","coordinates":[-122.413955,37.7829243]},"properties":{"id":9991815244,"category":"grocery","name":"T.L. Market & Deli"}},{"type":"Feature","geometry":{"type":"Point","coordinates":[-122.4208432,37.7841367]},"properties":{"id":9994003454,"category":"grocery","name":"Van Ness Market"}},{"type":"Feature","geometry":{"type":"Point","coordinates":[-122.4143931,37.7855184]},"properties":{"id":9995635821,"category":"grocery","name":"Econo Market"}},{"type":"Feature","geometry":{"type":"Point","coordinates":[-122.483683,37.7821887]},"properties":{"id":10003174710,"category":"grocery","name":"Cigarette Depot & Market"}},{"type":"Feature","geometry":{"type":"Point","coordinates":[-122.4030064,37.7828286]},"properties":{"id":10017342940,"category":"grocery","name":"A-Z Market"}},{"type":"Feature","geometry":{"type":"Point","coordinates":[-122.4129526,37.7849643]},"properties":{"id":10023428672,"category":"grocery","name":"Starlight Market"}},{"type":"Feature","geometry":{"type":"Point","coordinates":[-122.4275578,37.7821458]},"properties":{"id":10037896083,"category":"grocery","name":null}},{"type":"Feature","geometry":{"type":"Point","coordinates":[-122.3704466,37.8263913]},"properties":{"id":10057579916,"category":"grocery","name":"Island Cove Market"}},{"type":"Feature","geometry":{"type":"Point","coordinates":[-122.4195347,37.7856223]},"properties":{"id":10077749892,"category":"grocery","name":"California Produce"}},{"type":"Feature","geometry":{"type":"Point","coordinates":[-122.419281,37.7879798]},"properties":{"id":10132982058,"category":"grocery","name":"Sutter Market"}},{"type":"Feature","geometry":{"type":"Point","coordinates":[-122.4459569,37.797812]},"properties":{"id":10135647931,"category":"grocery","name":"Presidio Food Market"}},{"type":"Feature","geometry":{"type":"Point","coordinates":[-122.4250043,37.7777128]},"properties":{"id":10309959735,"category":"grocery","name":"Grove St Market"}},{"type":"Feature","geometry":{"type":"Point","coordinates":[-122.465134,37.7746125]},"properties":{"id":10311776854,"category":"grocery","name":"Safeway"}},{"type":"Feature","geometry":{"type":"Point","coordinates":[-122.4078816,37.7647759]},"properties":{"id":10555418966,"category":"grocery","name":"Food Mart"}},{"type":"Feature","geometry":{"type":"Point","coordinates":[-122.4125961,37.7831082]},"properties":{"id":10555756044,"category":"grocery","name":"G&H Liquor and Grocery"}},{"type":"Feature","geometry":{"type":"Point","coordinates":[-122.4122648,37.7857881]},"properties":{"id":10560594653,"category":"grocery","name":"Wally's Community Market"}},{"type":"Feature","geometry":{"type":"Point","coordinates":[-122.4379824,37.7737367]},"properties":{"id":10573779784,"category":"grocery","name":"Fast Fill Market"}},{"type":"Feature","geometry":{"type":"Point","coordinates":[-122.4445857,37.7125697]},"properties":{"id":10593163026,"category":"grocery","name":"Brothers Market"}},{"type":"Feature","geometry":{"type":"Point","coordinates":[-122.4236575,37.7616733]},"properties":{"id":10609307759,"category":"grocery","name":"Pay and Save Grocery"}},{"type":"Feature","geometry":{"type":"Point","coordinates":[-122.4235127,37.7598896]},"properties":{"id":10609321450,"category":"grocery","name":"Guerrero Market & Deli"}},{"type":"Feature","geometry":{"type":"Point","coordinates":[-122.4763228,37.7290661]},"properties":{"id":10610255658,"category":"grocery","name":"Whole Foods Market"}},{"type":"Feature","geometry":{"type":"Point","coordinates":[-122.4108916,37.7527862]},"properties":{"id":10650519570,"category":"grocery","name":"GGP Market"}},{"type":"Feature","geometry":{"type":"Point","coordinates":[-122.4139194,37.7526634]},"properties":{"id":10650773833,"category":"grocery","name":"W-K Market Super Discount"}},{"type":"Feature","geometry":{"type":"Point","coordinates":[-122.4112562,37.754389]},"properties":{"id":10650906957,"category":"grocery","name":"Mission Groceteria"}},{"type":"Feature","geometry":{"type":"Point","coordinates":[-122.4089789,37.7527201]},"properties":{"id":10652821576,"category":"grocery","name":"Samy’s Liquors"}},{"type":"Feature","geometry":{"type":"Point","coordinates":[-122.4096004,37.7591183]},"properties":{"id":10656538218,"category":"grocery","name":"Liquor Grocery"}},{"type":"Feature","geometry":{"type":"Point","coordinates":[-122.4095998,37.7560867]},"properties":{"id":10656542901,"category":"grocery","name":"King’ Market"}},{"type":"Feature","geometry":{"type":"Point","coordinates":[-122.4157598,37.7836406]},"properties":{"id":10665597197,"category":"grocery","name":"I.C.U."}},{"type":"Feature","geometry":{"type":"Point","coordinates":[-122.4455577,37.7875505]},"properties":{"id":10674834860,"category":"grocery","name":"California & Lyon Market"}},{"type":"Feature","geometry":{"type":"Point","coordinates":[-122.4209668,37.7568069]},"properties":{"id":10691813137,"category":"grocery","name":"Valencia Exotic Cigars & Liquors"}},{"type":"Feature","geometry":{"type":"Point","coordinates":[-122.4911443,37.7537324]},"properties":{"id":10736113404,"category":"grocery","name":"Mulan's Market"}},{"type":"Feature","geometry":{"type":"Point","coordinates":[-122.458364,37.7807789]},"properties":{"id":10785047734,"category":"grocery","name":"ExtraMile"}},{"type":"Feature","geometry":{"type":"Point","coordinates":[-122.4767481,37.7802753]},"properties":{"id":10794112885,"category":"grocery","name":"Royal Market"}},{"type":"Feature","geometry":{"type":"Point","coordinates":[-122.4824572,37.7820065]},"properties":{"id":10858358943,"category":"grocery","name":"Bourbon County"}},{"type":"Feature","geometry":{"type":"Point","coordinates":[-122.3962152,37.781776]},"properties":{"id":10859142440,"category":"grocery","name":"Jack’s Market"}},{"type":"Feature","geometry":{"type":"Point","coordinates":[-122.395368,37.781124]},"properties":{"id":10874867136,"category":"grocery","name":"Niell’s Grocery & Liquor"}},{"type":"Feature","geometry":{"type":"Point","coordinates":[-122.4676606,37.7805203]},"properties":{"id":10969975320,"category":"grocery","name":"Sonic Mart"}},{"type":"Feature","geometry":{"type":"Point","coordinates":[-122.388364,37.7531744]},"properties":{"id":11011243622,"category":"grocery","name":"Loop"}},{"type":"Feature","geometry":{"type":"Point","coordinates":[-122.5078743,37.7591827]},"properties":{"id":11028508800,"category":"grocery","name":"Your Market"}},{"type":"Feature","geometry":{"type":"Point","coordinates":[-122.3985422,37.7969036]},"properties":{"id":11064507175,"category":"grocery","name":"Safeway"}},{"type":"Feature","geometry":{"type":"Point","coordinates":[-122.4132553,37.7808783]},"properties":{"id":11142562489,"category":"grocery","name":"Plaza Snacks & Deli"}},{"type":"Feature","geometry":{"type":"Point","coordinates":[-122.4116839,37.7808371]},"properties":{"id":11144316503,"category":"grocery","name":"Bay Food Market"}},{"type":"Feature","geometry":{"type":"Point","coordinates":[-122.459482,37.7247268]},"properties":{"id":11162304805,"category":"grocery","name":"Fruit Barn"}},{"type":"Feature","geometry":{"type":"Point","coordinates":[-122.4259306,37.7754314]},"properties":{"id":11296107122,"category":"grocery","name":"Food Basket Market"}},{"type":"Feature","geometry":{"type":"Point","coordinates":[-122.4855391,37.7802498]},"properties":{"id":11303084098,"category":"grocery","name":"Hollywood Market"}},{"type":"Feature","geometry":{"type":"Point","coordinates":[-122.4587607,37.724573]},"properties":{"id":11330110153,"category":"grocery","name":"All Fresh Market"}},{"type":"Feature","geometry":{"type":"Point","coordinates":[-122.4213818,37.8063854]},"properties":{"id":11423890637,"category":"grocery","name":"Alcatraz Market"}},{"type":"Feature","geometry":{"type":"Point","coordinates":[-122.5016701,37.7565389]},"properties":{"id":11509744692,"category":"grocery","name":null}},{"type":"Feature","geometry":{"type":"Point","coordinates":[-122.3979356,37.7549065]},"properties":{"id":11556085319,"category":"grocery","name":"M & W Market"}},{"type":"Feature","geometry":{"type":"Point","coordinates":[-122.4429242,37.7744644]},"properties":{"id":11582939955,"category":"grocery","name":"Parkside Market"}},{"type":"Feature","geometry":{"type":"Point","coordinates":[-122.4105073,37.7833669]},"properties":{"id":11699762310,"category":"grocery","name":"Tip Top Market"}},{"type":"Feature","geometry":{"type":"Point","coordinates":[-122.4116354,37.7830042]},"properties":{"id":11699777853,"category":"grocery","name":"Ed's Market"}},{"type":"Feature","geometry":{"type":"Point","coordinates":[-122.4140198,37.7833078]},"properties":{"id":11699784772,"category":"grocery","name":"SF Discount Market"}},{"type":"Feature","geometry":{"type":"Point","coordinates":[-122.4140931,37.7836392]},"properties":{"id":11699784773,"category":"grocery","name":"Empire Market"}},{"type":"Feature","geometry":{"type":"Point","coordinates":[-122.4129286,37.7828339]},"properties":{"id":11702308289,"category":"grocery","name":"Radman's Produce Market"}},{"type":"Feature","geometry":{"type":"Point","coordinates":[-122.4142799,37.783209]},"properties":{"id":11705132475,"category":"grocery","name":"Golden Gate Market & Produce"}},{"type":"Feature","geometry":{"type":"Point","coordinates":[-122.4158236,37.7920843]},"properties":{"id":11737694237,"category":"grocery","name":"Tahona Mercado"}},{"type":"Feature","geometry":{"type":"Point","coordinates":[-122.4086566,37.7759233]},"properties":{"id":11777394346,"category":"grocery","name":"Welcome Supermarket"}},{"type":"Feature","geometry":{"type":"Point","coordinates":[-122.4161464,37.7492676]},"properties":{"id":11806415061,"category":"grocery","name":"Vic’s Grocery Liquor"}},{"type":"Feature","geometry":{"type":"Point","coordinates":[-122.4084054,37.780502]},"properties":{"id":11817396087,"category":"grocery","name":"I. C. U. Market"}},{"type":"Feature","geometry":{"type":"Point","coordinates":[-122.4079973,37.7805908]},"properties":{"id":11817396091,"category":"grocery","name":"6th Gift & More"}},{"type":"Feature","geometry":{"type":"Point","coordinates":[-122.3989177,37.7835778]},"properties":{"id":11897570031,"category":"grocery","name":"Chaat Corner Indian Grocery"}},{"type":"Feature","geometry":{"type":"Point","coordinates":[-122.4070092,37.7057111]},"properties":{"id":11906698583,"category":"grocery","name":null}},{"type":"Feature","geometry":{"type":"Point","coordinates":[-122.4264269,37.7781179]},"properties":{"id":11950809144,"category":"grocery","name":"Trader Joe's"}},{"type":"Feature","geometry":{"type":"Point","coordinates":[-122.4077393,37.7950712]},"properties":{"id":11974004198,"category":"grocery","name":"Dai Lee Food Inc."}},{"type":"Feature","geometry":{"type":"Point","coordinates":[-122.4153964,37.7784827]},"properties":{"id":12044046584,"category":"grocery","name":"Civic Center Market"}},{"type":"Feature","geometry":{"type":"Point","coordinates":[-122.4277764,37.7764031]},"properties":{"id":12052328555,"category":"grocery","name":"Hayes Market"}},{"type":"Feature","geometry":{"type":"Point","coordinates":[-122.4214564,37.7731747]},"properties":{"id":12297513702,"category":"grocery","name":"Nick's Foods"}},{"type":"Feature","geometry":{"type":"Point","coordinates":[-122.447838,37.7738194]},"properties":{"id":12338362406,"category":"grocery","name":"Central Park Natural"}},{"type":"Feature","geometry":{"type":"Point","coordinates":[-122.4183513,37.7492175]},"properties":{"id":12522217330,"category":"grocery","name":"Samiramis Imports"}},{"type":"Feature","geometry":{"type":"Point","coordinates":[-122.3878755,37.7578731]},"properties":{"id":12637859032,"category":"grocery","name":"Mainstay Markets"}},{"type":"Feature","geometry":{"type":"Point","coordinates":[-122.43329,37.764629]},"properties":{"id":12784621428,"category":"grocery","name":"Rosenberg's Market"}},{"type":"Feature","geometry":{"type":"Point","coordinates":[-122.4410589,37.7170763]},"properties":{"id":12854606431,"category":"grocery","name":"Circle K"}},{"type":"Feature","geometry":{"type":"Point","coordinates":[-122.4408246,37.7164747]},"properties":{"id":12854606433,"category":"grocery","name":"Adel Market"}},{"type":"Feature","geometry":{"type":"Point","coordinates":[-122.4192758,37.7592127]},"properties":{"id":12863374035,"category":"grocery","name":"Mission Food Center"}},{"type":"Feature","geometry":{"type":"Point","coordinates":[-122.4189408,37.7587948]},"properties":{"id":12863374037,"category":"grocery","name":"Jasmine Market"}},{"type":"Feature","geometry":{"type":"Point","coordinates":[-122.4142349,37.7556103]},"properties":{"id":12941401423,"category":"grocery","name":"Isaac's Market"}},{"type":"Feature","geometry":{"type":"Point","coordinates":[-122.489952,37.7537866]},"properties":{"id":12947723693,"category":"grocery","name":"Quarts n Pints"}},{"type":"Feature","geometry":{"type":"Point","coordinates":[-122.4184381,37.7539648]},"properties":{"id":13030734577,"category":"grocery","name":"That's It"}},{"type":"Feature","geometry":{"type":"Point","coordinates":[-122.4662511,37.7646119]},"properties":{"id":13069359115,"category":"grocery","name":"Luke's Local"}},{"type":"Feature","geometry":{"type":"Point","coordinates":[-122.4334374,37.7657173]},"properties":{"id":13089639302,"category":"grocery","name":"Noe Valley Market"}},{"type":"Feature","geometry":{"type":"Point","coordinates":[-122.4364045,37.7855621]},"properties":{"id":13121923502,"category":"grocery","name":"Pacific Food Mart"}},{"type":"Feature","geometry":{"type":"Point","coordinates":[-122.4664235,37.7788922]},"properties":{"id":13293816577,"category":"grocery","name":"M&K Market"}},{"type":"Feature","geometry":{"type":"Point","coordinates":[-122.4064339,37.7943706]},"properties":{"id":13311274107,"category":"grocery","name":"Ha Mini Mart"}},{"type":"Feature","geometry":{"type":"Point","coordinates":[-122.4356708,37.7882865]},"properties":{"id":13365357095,"category":"grocery","name":"Loop"}},{"type":"Feature","geometry":{"type":"Point","coordinates":[-122.3948104,37.7249323]},"properties":{"id":13461244801,"category":"grocery","name":"Mi Rancho Supermarket"}},{"type":"Feature","geometry":{"type":"Point","coordinates":[-122.3931933,37.7222067]},"properties":{"id":13461264601,"category":"grocery","name":"K&J Market"}},{"type":"Feature","geometry":{"type":"Point","coordinates":[-122.4150326,37.7523406]},"properties":{"id":13631136502,"category":"grocery","name":"George's Market"}},{"type":"Feature","geometry":{"type":"Point","coordinates":[-122.398396,37.7363873]},"properties":{"id":13702967501,"category":"grocery","name":"Mike's Market"}},{"type":"Feature","geometry":{"type":"Point","coordinates":[-122.4364836,37.7135728]},"properties":{"id":13710411302,"category":"grocery","name":"Cordova Market - Grocery, Meat, Produce, Liquor & Craft Beer"}},{"type":"Feature","geometry":{"type":"Point","coordinates":[-122.421469,37.7586007]},"properties":{"id":13724354421,"category":"grocery","name":"Golden Eagle Market"}},{"type":"Feature","geometry":{"type":"Point","coordinates":[-122.4024955,37.7241797]},"properties":{"id":13726182409,"category":"grocery","name":null}},{"type":"Feature","geometry":{"type":"Point","coordinates":[-122.4183516,37.7468052]},"properties":{"id":13728362677,"category":"grocery","name":"Precita Food Mart"}},{"type":"Feature","geometry":{"type":"Point","coordinates":[-122.4079916,37.7529801]},"properties":{"id":13737988446,"category":"grocery","name":"Ricci's Market"}},{"type":"Feature","geometry":{"type":"Point","coordinates":[-122.4144149,37.7573816]},"properties":{"id":13738864214,"category":"grocery","name":"La Lomita Market"}},{"type":"Feature","geometry":{"type":"Point","coordinates":[-122.4202736,37.7552568]},"properties":{"id":13768550399,"category":"grocery","name":"Indian Spices and Grocery"}},{"type":"Feature","geometry":{"type":"Point","coordinates":[-122.4218171,37.7423331]},"properties":{"id":13906059705,"category":"grocery","name":"Bernal Heights Stop & Shop"}},{"type":"Feature","geometry":{"type":"Point","coordinates":[-122.4257316,37.7397095]},"properties":{"id":13910510342,"category":"grocery","name":"Chenery Market"}},{"type":"Feature","geometry":{"type":"Point","coordinates":[-122.4236309,37.7404714]},"properties":{"id":13938477143,"category":"grocery","name":"Loop"}},{"type":"Feature","geometry":{"type":"Point","coordinates":[-122.4061296,37.754205]},"properties":{"id":13951064003,"category":"grocery","name":"Fresh Start #1"}},{"type":"Feature","geometry":{"type":"Point","coordinates":[-122.4043684,37.7915696]},"properties":{"id":13960254577,"category":"grocery","name":"Aji Kiji"}},{"type":"Feature","geometry":{"type":"Point","coordinates":[-122.4022652,37.7589291]},"properties":{"id":13963337801,"category":"grocery","name":"Chiotras Grocery"}},{"type":"Feature","geometry":{"type":"Point","coordinates":[-122.4328657,37.7860566]},"properties":{"id":14156350917,"category":"grocery","name":"Yuzu"}},{"type":"Feature","geometry":{"type":"Point","coordinates":[-122.4161193,37.7676245]},"properties":{"id":25821952,"category":"grocery","name":"Foods Co"}},{"type":"Feature","geometry":{"type":"Point","coordinates":[-122.4328308,37.8044499]},"properties":{"id":26135377,"category":"grocery","name":"Safeway"}},{"type":"Feature","geometry":{"type":"Point","coordinates":[-122.4741162,37.7434345]},"properties":{"id":28941473,"category":"grocery","name":"Safeway"}},{"type":"Feature","geometry":{"type":"Point","coordinates":[-122.4087841,37.7996724]},"properties":{"id":32611756,"category":"grocery","name":"Luke's Local Grocery"}},{"type":"Feature","geometry":{"type":"Point","coordinates":[-122.4478393,37.7833886]},"properties":{"id":34323155,"category":"grocery","name":"Trader Joe's"}},{"type":"Feature","geometry":{"type":"Point","coordinates":[-122.4184388,37.7705244]},"properties":{"id":42916777,"category":"grocery","name":"Chef'Store"}},{"type":"Feature","geometry":{"type":"Point","coordinates":[-122.481658,37.6996207]},"properties":{"id":122603225,"category":"grocery","name":"Safeway"}},{"type":"Feature","geometry":{"type":"Point","coordinates":[-122.3944734,37.780558]},"properties":{"id":124889473,"category":"grocery","name":"Shell"}},{"type":"Feature","geometry":{"type":"Point","coordinates":[-122.4669176,37.7642659]},"properties":{"id":148174272,"category":"grocery","name":"828 Irving Market"}},{"type":"Feature","geometry":{"type":"Point","coordinates":[-122.3988207,37.7297434]},"properties":{"id":151183375,"category":"grocery","name":"Foods Co"}},{"type":"Feature","geometry":{"type":"Point","coordinates":[-122.4150738,37.7690607]},"properties":{"id":169204245,"category":"grocery","name":"Rainbow Grocery Coop"}},{"type":"Feature","geometry":{"type":"Point","coordinates":[-122.465175,37.7822881]},"properties":{"id":170845442,"category":"grocery","name":"Smart & Final"}},{"type":"Feature","geometry":{"type":"Point","coordinates":[-122.4309055,37.7520191]},"properties":{"id":194906343,"category":"grocery","name":"Whole Foods Market"}},{"type":"Feature","geometry":{"type":"Point","coordinates":[-122.4217804,37.7972744]},"properties":{"id":206679814,"category":"grocery","name":"Polk Street Market"}},{"type":"Feature","geometry":{"type":"Point","coordinates":[-122.488855,37.754188]},"properties":{"id":219058329,"category":"grocery","name":"Safeway"}},{"type":"Feature","geometry":{"type":"Point","coordinates":[-122.5093538,37.7725365]},"properties":{"id":219059013,"category":"grocery","name":"Safeway"}},{"type":"Feature","geometry":{"type":"Point","coordinates":[-122.4500508,37.7312406]},"properties":{"id":219059390,"category":"grocery","name":"Safeway"}},{"type":"Feature","geometry":{"type":"Point","coordinates":[-122.4389462,37.7435687]},"properties":{"id":219071301,"category":"grocery","name":"Safeway"}},{"type":"Feature","geometry":{"type":"Point","coordinates":[-122.4283215,37.7691101]},"properties":{"id":219072560,"category":"grocery","name":"Safeway"}},{"type":"Feature","geometry":{"type":"Point","coordinates":[-122.4085699,37.7732987]},"properties":{"id":219783346,"category":"grocery","name":"Shell"}},{"type":"Feature","geometry":{"type":"Point","coordinates":[-122.4527946,37.7695531]},"properties":{"id":228246796,"category":"grocery","name":"Whole Foods Market"}},{"type":"Feature","geometry":{"type":"Point","coordinates":[-122.4224516,37.7432508]},"properties":{"id":231656266,"category":"grocery","name":"Safeway"}},{"type":"Feature","geometry":{"type":"Point","coordinates":[-122.4048891,37.7774987]},"properties":{"id":243356581,"category":"grocery","name":"ExtraMile"}},{"type":"Feature","geometry":{"type":"Point","coordinates":[-122.4536954,37.7437795]},"properties":{"id":256912288,"category":"grocery","name":"Miraloma Market"}},{"type":"Feature","geometry":{"type":"Point","coordinates":[-122.403132,37.77974]},"properties":{"id":256969995,"category":"grocery","name":"Harvey's Place"}},{"type":"Feature","geometry":{"type":"Point","coordinates":[-122.4581435,37.7756528]},"properties":{"id":260194579,"category":"grocery","name":"Arguello Market"}},{"type":"Feature","geometry":{"type":"Point","coordinates":[-122.4245083,37.764422]},"properties":{"id":260462506,"category":"grocery","name":null}},{"type":"Feature","geometry":{"type":"Point","coordinates":[-122.4099485,37.7982889]},"properties":{"id":260967541,"category":"grocery","name":"Chef Bowl, Inc."}},{"type":"Feature","geometry":{"type":"Point","coordinates":[-122.429277,37.7678905]},"properties":{"id":261268776,"category":"grocery","name":"George's Market"}},{"type":"Feature","geometry":{"type":"Point","coordinates":[-122.4374873,37.7748031]},"properties":{"id":261292750,"category":"grocery","name":"Bi-Rite Market"}},{"type":"Feature","geometry":{"type":"Point","coordinates":[-122.4345222,37.7885533]},"properties":{"id":263224863,"category":"grocery","name":"Mollie Stone's"}},{"type":"Feature","geometry":{"type":"Point","coordinates":[-122.4663802,37.7604783]},"properties":{"id":264202048,"category":"grocery","name":"Roxie’s Market & Deli"}},{"type":"Feature","geometry":{"type":"Point","coordinates":[-122.4476308,37.7702039]},"properties":{"id":264371887,"category":"grocery","name":"Haight Street Market"}},{"type":"Feature","geometry":{"type":"Point","coordinates":[-122.4495368,37.7650528]},"properties":{"id":264645161,"category":"grocery","name":"Luke's Local"}},{"type":"Feature","geometry":{"type":"Point","coordinates":[-122.4767967,37.7651898]},"properties":{"id":267730623,"category":"grocery","name":"Loop"}},{"type":"Feature","geometry":{"type":"Point","coordinates":[-122.4508481,37.7864539]},"properties":{"id":273331515,"category":"grocery","name":"Bryan's Grocery"}},{"type":"Feature","geometry":{"type":"Point","coordinates":[-122.4228341,37.7414762]},"properties":{"id":273538398,"category":"grocery","name":"El Ahorro Market"}},{"type":"Feature","geometry":{"type":"Point","coordinates":[-122.4208885,37.7447051]},"properties":{"id":273575865,"category":"grocery","name":"El Chavo"}},{"type":"Feature","geometry":{"type":"Point","coordinates":[-122.4714888,37.7810984]},"properties":{"id":274834418,"category":"grocery","name":"7-Eleven"}},{"type":"Feature","geometry":{"type":"Point","coordinates":[-122.452308,37.744743]},"properties":{"id":276546465,"category":"grocery","name":"Mollie Stone's"}},{"type":"Feature","geometry":{"type":"Point","coordinates":[-122.4787965,37.7632552]},"properties":{"id":276587667,"category":"grocery","name":"Sunrise Irving Market"}},{"type":"Feature","geometry":{"type":"Point","coordinates":[-122.4805503,37.7631811]},"properties":{"id":276623337,"category":"grocery","name":"22nd & Irving Market"}},{"type":"Feature","geometry":{"type":"Point","coordinates":[-122.4840885,37.763014]},"properties":{"id":276814493,"category":"grocery","name":"25th Irving Market"}},{"type":"Feature","geometry":{"type":"Point","coordinates":[-122.4338202,37.7340694]},"properties":{"id":277743066,"category":"grocery","name":"Canyon Market"}},{"type":"Feature","geometry":{"type":"Point","coordinates":[-122.5043529,37.760676]},"properties":{"id":277861419,"category":"grocery","name":"Other Avenues Grocery Co-op"}},{"type":"Feature","geometry":{"type":"Point","coordinates":[-122.4722613,37.7429808]},"properties":{"id":278909610,"category":"grocery","name":"Parkside Farmers Market"}},{"type":"Feature","geometry":{"type":"Point","coordinates":[-122.490055,37.7426765]},"properties":{"id":284846007,"category":"grocery","name":"7-Eleven"}},{"type":"Feature","geometry":{"type":"Point","coordinates":[-122.484198,37.7805257]},"properties":{"id":286264839,"category":"grocery","name":"Food Mart"}},{"type":"Feature","geometry":{"type":"Point","coordinates":[-122.4741693,37.780876]},"properties":{"id":286270194,"category":"grocery","name":"7-Eleven"}},{"type":"Feature","geometry":{"type":"Point","coordinates":[-122.4774238,37.7613932]},"properties":{"id":286277225,"category":"grocery","name":"Arco Food Mart"}},{"type":"Feature","geometry":{"type":"Point","coordinates":[-122.4973752,37.7380924]},"properties":{"id":288678028,"category":"grocery","name":"Sunset Super"}},{"type":"Feature","geometry":{"type":"Point","coordinates":[-122.4039489,37.7322539]},"properties":{"id":288723497,"category":"grocery","name":null}},{"type":"Feature","geometry":{"type":"Point","coordinates":[-122.4735663,37.7172927]},"properties":{"id":288947557,"category":"grocery","name":"Park Plaza Fine Foods"}},{"type":"Feature","geometry":{"type":"Point","coordinates":[-122.3864344,37.7293471]},"properties":{"id":289390188,"category":"grocery","name":"Lee’s Food Market"}},{"type":"Feature","geometry":{"type":"Point","coordinates":[-122.4060028,37.7084987]},"properties":{"id":289560462,"category":"grocery","name":"Grocery Outlet"}},{"type":"Feature","geometry":{"type":"Point","coordinates":[-122.4399719,37.72873]},"properties":{"id":289935634,"category":"grocery","name":"Red Sea Market"}},{"type":"Feature","geometry":{"type":"Point","coordinates":[-122.4090582,37.731046]},"properties":{"id":290044336,"category":"grocery","name":"Grocery Outlet"}},{"type":"Feature","geometry":{"type":"Point","coordinates":[-122.4389783,37.7199299]},"properties":{"id":290616523,"category":"grocery","name":"Safeway"}},{"type":"Feature","geometry":{"type":"Point","coordinates":[-122.409297,37.7668779]},"properties":{"id":293604057,"category":"grocery","name":"Safeway"}},{"type":"Feature","geometry":{"type":"Point","coordinates":[-122.416939,37.7638733]},"properties":{"id":402854614,"category":"grocery","name":null}},{"type":"Feature","geometry":{"type":"Point","coordinates":[-122.4766815,37.7613545]},"properties":{"id":407408481,"category":"grocery","name":"Valero"}},{"type":"Feature","geometry":{"type":"Point","coordinates":[-122.4289844,37.7303235]},"properties":{"id":503144637,"category":"grocery","name":"Manila Oriental Market"}},{"type":"Feature","geometry":{"type":"Point","coordinates":[-122.4158643,37.753123]},"properties":{"id":503427028,"category":"grocery","name":"Grocery Outlet"}},{"type":"Feature","geometry":{"type":"Point","coordinates":[-122.466956,37.7825989]},"properties":{"id":624596716,"category":"grocery","name":"Richmond New May Wah Supermarket"}},{"type":"Feature","geometry":{"type":"Point","coordinates":[-122.4930603,37.7822204]},"properties":{"id":1156829796,"category":"grocery","name":"Andronico's"}},{"type":"Feature","geometry":{"type":"Point","coordinates":[-122.50913,37.7637518]},"properties":{"id":1247327332,"category":"grocery","name":"Food Mart"}},{"type":"Feature","geometry":{"type":"Point","coordinates":[-122.4894545,37.7330423]},"properties":{"id":1378825464,"category":"grocery","name":"Lucky"}},{"type":"Feature","geometry":{"type":"Point","coordinates":[-122.4840236,37.7020213]},"properties":{"id":1526654485,"category":"grocery","name":"ExtraMile"}},{"type":"Feature","geometry":{"type":"Point","coordinates":[-122.403348,37.7468221]},"properties":{"id":3474418,"category":"grocery","name":"Chevron"}},{"type":"Feature","geometry":{"type":"Point","coordinates":[-122.4711693,37.7641416]},"properties":{"id":3585039,"category":"grocery","name":"Andronico's Community Market"}},{"type":"Feature","geometry":{"type":"Point","coordinates":[-122.4167221,37.7389001]},"properties":{"id":21226959,"category":"grocery","name":"Good Life Grocery"}}]}